{"_default": { "130": {"norad_id": "45727", "name": "M2 PATHFINDER", "tle1": "1 45727U 20037E   26161.26369985  .00002197  00000-0  16065-3 0  9991", "tle2": "2 45727  97.8160 352.4179 0011852 168.8830 191.2660 15.04648075324453", "object_type": "PAYLOAD", "criticality_score": 9.0, "last_updated": "2026-06-11T12:15:23.970987+00:00", "maneuver_count": 0}, "162": {"norad_id": "46506", "name": "NETSAT-1", "tle1": "1 46506U 20068W   26161.54956251  .00011804  00000-0  35566-3 0  9992", "tle2": "2 46506  97.8743 161.8916 0005802  51.2758 308.9001 15.34485984314286", "object_type": "PAYLOAD", "criticality_score": 9.0, "last_updated": "2026-06-11T12:15:23.970987+00:00", "maneuver_count": 0}, "163": {"norad_id": "46507", "name": "NETSAT-2", "tle1": "1 46507U 20068X   26161.56242555  .00020456  00000-0  42483-3 0  9999", "tle2": "2 46507  97.8620 169.1422 0004339  44.2727 315.8867 15.45713642314718", "object_type": "PAYLOAD", "criticality_score": 9.0, "last_updated": "2026-06-11T12:15:23.970987+00:00", "maneuver_count": 0}, "164": {"norad_id": "46505", "name": "NETSAT-3", "tle1": "1 46505U 20068V   26161.57929328  .00016076  00000-0  37330-3 0  9996", "tle2": "2 46505  97.8657 167.5147 0005160  25.3166 334.8332 15.42448030314667", "object_type": "PAYLOAD", "criticality_score": 9.0, "last_updated": "2026-06-11T12:15:23.970987+00:00", "maneuver_count": 0}, "165": {"norad_id": "46504", "name": "NETSAT-4", "tle1": "1 46504U 20068U   26161.57811552  .00015855  00000-0  35380-3 0  9991", "tle2": "2 46504  97.8607 169.2885 0004698   6.6618 353.4690 15.43644527314752", "object_type": "PAYLOAD", "criticality_score": 9.0, "last_updated": "2026-06-11T12:15:23.970987+00:00", "maneuver_count": 0}, "212": {"norad_id": "43759", "name": "SIRION PATHFINDER-2", "tle1": "1 43759U 18099B   26161.04624585  .00003826  00000-0  21132-3 0  9996", "tle2": "2 43759  97.4257 210.2733 0007716 334.0857  25.9987 15.14486025411544", "object_type": "PAYLOAD", "criticality_score": 9.0, "last_updated": "2026-06-11T12:15:23.970987+00:00", "maneuver_count": 0}, "308": {"norad_id": "53109", "name": "AVUM R/B", "tle1": "1 53109U 22080E   26152.46502029 -.00000003  00000-0  00000-0 0  9998", "tle2": "2 53109  70.1435 303.7143 0008869 293.3663  66.6064  6.42583280 91055", "object_type": "ROCKET_BODY", "criticality_score": 3.0, "last_updated": "2026-06-11T12:15:23.970987+00:00", "maneuver_count": 0}, "582": {"norad_id": "57204", "name": "OBJECT AQ", "tle1": "1 57204U 23091AQ  26161.56623079  .00017012  00000-0  45405-3 0  9999", "tle2": "2 57204  97.5097 232.1494 0007686  95.0369 265.1753 15.38165096163756", "object_type": "PAYLOAD", "criticality_score": 7.0, "last_updated": "2026-06-11T12:15:23.970987+00:00", "maneuver_count": 0}, "583": {"norad_id": "57208", "name": "OBJECT AU", "tle1": "1 57208U 23091AU  26161.58146710  .00017969  00000-0  47291-3 0  9993", "tle2": "2 57208  97.5095 232.4073 0007579  94.7549 265.4562 15.38587074163778", "object_type": "PAYLOAD", "criticality_score": 7.0, "last_updated": "2026-06-11T12:15:23.970987+00:00", "maneuver_count": 0}, "584": {"norad_id": "57199", "name": "OBJECT AK", "tle1": "1 57199U 23091AK  26161.61510177  .00018151  00000-0  48117-3 0  9990", "tle2": "2 57199  97.5086 232.0013 0007855  99.6184 260.5948 15.38358562163753", "object_type": "PAYLOAD", "criticality_score": 7.0, "last_updated": "2026-06-11T12:15:23.970987+00:00", "maneuver_count": 0}, "585": {"norad_id": "57201", "name": "OBJECT AM", "tle1": "1 57201U 23091AM  26161.57436115  .00017563  00000-0  47298-3 0  9993", "tle2": "2 57201  97.5083 231.6946 0008114  99.9137 260.3023 15.37876768163736", "object_type": "PAYLOAD", "criticality_score": 7.0, "last_updated": "2026-06-11T12:15:23.970987+00:00", "maneuver_count": 0}, "586": {"norad_id": "57194", "name": "OBJECT AE", "tle1": "1 57194U 23091AE  26161.55821157  .00008291  00000-0  32946-3 0  9998", "tle2": "2 57194  97.5072 224.3776 0012856 127.7695 232.4710 15.25496778163269", "object_type": "PAYLOAD", "criticality_score": 7.0, "last_updated": "2026-06-11T12:15:23.970987+00:00", "maneuver_count": 0}, "587": {"norad_id": "57193", "name": "OBJECT AD", "tle1": "1 57193U 23091AD  26161.62111856  .00013306  00000-0  43268-3 0  9995", "tle2": "2 57193  97.5062 227.0207 0011852 120.0969 240.1449 15.31953973163448", "object_type": "PAYLOAD", "criticality_score": 7.0, "last_updated": "2026-06-11T12:15:23.970987+00:00", "maneuver_count": 0}, "588": {"norad_id": "57192", "name": "OBJECT AC", "tle1": "1 57192U 23091AC  26161.55641266  .00008530  00000-0  33569-3 0  9995", "tle2": "2 57192  97.5075 224.5474 0013039 126.9205 233.3229 15.25806993163279", "object_type": "PAYLOAD", "criticality_score": 7.0, "last_updated": "2026-06-11T12:15:23.970987+00:00", "maneuver_count": 0}, "589": {"norad_id": "57176", "name": "OBJECT L", "tle1": "1 57176U 23091L   26161.52719288  .00011062  00000-0  39083-3 0  9995", "tle2": "2 57176  97.5066 225.3637 0012748 124.0411 236.2041 15.29300933163322", "object_type": "PAYLOAD", "criticality_score": 7.0, "last_updated": "2026-06-11T12:15:23.970987+00:00", "maneuver_count": 0}, "756": {"norad_id": "43767", "name": "CORVUS BC4", "tle1": "1 43767U 18099K   26161.57242351  .00003496  00000-0  20463-3 0  9999", "tle2": "2 43767  97.4074 204.7464 0009003  35.0838 325.0984 15.12442705411408", "object_type": "PAYLOAD", "criticality_score": 9.0, "last_updated": "2026-06-11T12:15:23.970987+00:00", "maneuver_count": 0}, "784": {"norad_id": "59071", "name": "OBJECT U", "tle1": "1 59071U 24039U   26161.55939309  .00002363  00000-0  18489-3 0  9996", "tle2": "2 59071  95.3918 230.7525 0143582 351.1573   8.7125 14.93728456123751", "object_type": "PAYLOAD", "criticality_score": 7.0, "last_updated": "2026-06-11T12:05:22.837114+00:00", "maneuver_count": 0}, "785": {"norad_id": "59068", "name": "OBJECT T", "tle1": "1 59068U 24039T   26161.64879448  .00002737  00000-0  21386-3 0  9994", "tle2": "2 59068  95.3914 230.7671 0143682 350.9483   8.9155 14.93693188123762", "object_type": "PAYLOAD", "criticality_score": 7.0, "last_updated": "2026-06-11T12:05:22.837114+00:00", "maneuver_count": 0}, "786": {"norad_id": "59067", "name": "OBJECT S", "tle1": "1 59067U 24039S   26161.60971741  .00002893  00000-0  22783-3 0  9993", "tle2": "2 59067  95.3914 230.4715 0144641 352.5215   7.3852 14.93276772123734", "object_type": "PAYLOAD", "criticality_score": 7.0, "last_updated": "2026-06-11T12:05:22.837114+00:00", "maneuver_count": 0}, "787": {"norad_id": "59066", "name": "OBJECT R", "tle1": "1 59066U 24039R   26161.60924082  .00002980  00000-0  23353-3 0  9999", "tle2": "2 59066  95.3914 230.5721 0144285 351.9460   7.9448 14.93479863123744", "object_type": "PAYLOAD", "criticality_score": 7.0, "last_updated": "2026-06-11T12:05:22.837114+00:00", "maneuver_count": 0}, "875": {"norad_id": "60237", "name": "OBJECT C", "tle1": "1 60237U 24128C   26161.58313076  .00003187  00000-0  22462-3 0  9992", "tle2": "2 60237  61.9898 239.4357 0041546 133.2177 227.2398 15.06595991105276", "object_type": "PAYLOAD", "criticality_score": 7.0, "last_updated": "2026-06-11T12:05:22.837114+00:00", "maneuver_count": 0}, "879": {"norad_id": "60243", "name": "ROBUSTA-3A", "tle1": "1 60243U 24128J   26161.51999058  .00005875  00000-0  35005-3 0  9995", "tle2": "2 60243  61.9859 231.8200 0042079 126.8629 233.6336 15.11597596105413", "object_type": "PAYLOAD", "criticality_score": 7.0, "last_updated": "2026-06-11T12:05:22.837114+00:00", "maneuver_count": 0}, "881": {"norad_id": "60240", "name": "OOV-CUBE", "tle1": "1 60240U 24128F   26161.60113742  .00001981  00000-0  16003-3 0  9991", "tle2": "2 60240  61.9950 248.5377 0045444 132.2861 228.2097 15.02746418105121", "object_type": "PAYLOAD", "criticality_score": 7.0, "last_updated": "2026-06-11T12:05:22.837114+00:00", "maneuver_count": 0}, "1054": {"norad_id": "62394", "name": "CROCUBE", "tle1": "1 62394U 24247T   26161.65050469  .00035404  00000-0  66998-3 0  9991", "tle2": "2 62394  44.9722 296.3748 0008240 298.7103  61.2959 15.47795780 82338", "object_type": "PAYLOAD", "criticality_score": 7.0, "last_updated": "2026-06-11T12:05:22.837114+00:00", "maneuver_count": 0}, "1055": {"norad_id": "62391", "name": "LASARSAT", "tle1": "1 62391U 24247Q   26160.80476977  .00035312  00000-0  71316-3 0  9998", "tle2": "2 62391  44.9750 303.6854 0008391 290.3514  69.6474 15.45910909 82173", "object_type": "PAYLOAD", "criticality_score": 7.0, "last_updated": "2026-06-11T12:05:22.837114+00:00", "maneuver_count": 0}, "1409": {"norad_id": "66778", "name": "FORESAIL-1 PRIME", "tle1": "1 66778U 25276DS  26161.14409769  .00004678  00000-0  22914-3 0  9998", "tle2": "2 66778  97.4201 234.5441 0003804 117.9504 242.2116 15.18638120 29334", "object_type": "PAYLOAD", "criticality_score": 7.0, "last_updated": "2026-06-11T12:05:22.837114+00:00", "maneuver_count": 0}, "1478": {"norad_id": "67683", "name": "KNACKSAT-2", "tle1": "1 67683U 98067XZ  26161.62292766  .00042223  00000-0  52712-3 0  9999", "tle2": "2 67683  51.6305 327.4826 0009975 186.2024 173.8847 15.59374405 19255", "object_type": "PAYLOAD", "criticality_score": 7.0, "last_updated": "2026-06-11T12:05:22.837114+00:00", "maneuver_count": 0}}}