OBJECT_NAME,OBJECT_ID,EPOCH,MEAN_MOTION,ECCENTRICITY,INCLINATION,RA_OF_ASC_NODE,ARG_OF_PERICENTER,MEAN_ANOMALY,EPHEMERIS_TYPE,CLASSIFICATION_TYPE,NORAD_CAT_ID,ELEMENT_SET_NO,REV_AT_EPOCH,BSTAR,MEAN_MOTION_DOT,MEAN_MOTION_DDOT
SIRION PATHFINDER-2,2018-099B,2026-06-10T01:06:35.641440,15.14486025,.00077161,97.4257,210.2733,334.0857,25.9987,0,U,43759,999,41154,.21131784E-3,.3826E-4,0
CORVUS BC4,2018-099K,2026-06-10T13:44:17.391264,15.12442705,.00090026,97.4074,204.7464,35.0838,325.0984,0,U,43767,999,41140,.20463247E-3,.3496E-4,0
M2 PATHFINDER,2020-037E,2026-06-10T06:19:43.667040,15.04648075,.0011852,97.8160,352.4179,168.8830,191.2660,0,U,45727,999,32445,.16065E-3,.2197E-4,0
NETSAT-4,2020-068U,2026-06-10T13:52:29.180928,15.43644527,.00046982,97.8607,169.2885,6.6618,353.4690,0,U,46504,999,31475,.35379708E-3,.15855E-3,0
NETSAT-3,2020-068V,2026-06-10T13:54:10.939392,15.42448030,.00051605,97.8657,167.5147,25.3166,334.8332,0,U,46505,999,31466,.37330121E-3,.16076E-3,0
NETSAT-1,2020-068W,2026-06-10T13:11:22.200864,15.34485984,.00058024,97.8743,161.8916,51.2758,308.9001,0,U,46506,999,31428,.35566339E-3,.11804E-3,0
NETSAT-2,2020-068X,2026-06-10T13:29:53.567520,15.45713642,.00043388,97.8620,169.1422,44.2727,315.8867,0,U,46507,999,31471,.42482768E-3,.20456E-3,0
GREENCUBE (IO-117),2022-080E,2026-06-01T11:09:37.753056,6.42583280,.00088692,70.1435,303.7143,293.3663,66.6064,0,U,53109,999,9105,0,-.3E-7,0
SITRO-AIS 5 (KATYS),2023-091L,2026-06-10T12:39:09.464832,15.29300933,.00127477,97.5066,225.3637,124.0411,236.2041,0,U,57176,999,16332,.39083199E-3,.11062E-3,0
SITRO-AIS 6 (CHIRKIN),2023-091AC,2026-06-10T13:21:14.053824,15.25806993,.00130392,97.5075,224.5474,126.9205,233.3229,0,U,57192,999,16327,.33569304E-3,.853E-4,0
SITRO-AIS 8 (ANOKHIN),2023-091AD,2026-06-10T14:54:24.643584,15.31953973,.00118518,97.5062,227.0207,120.0969,240.1449,0,U,57193,999,16344,.43267516E-3,.13306E-3,0
SITRO-AIS 7 (FARTUSHNIY),2023-091AE,2026-06-10T13:23:49.479648,15.25496778,.00128564,97.5072,224.3776,127.7695,232.4710,0,U,57194,999,16326,.3294604E-3,.8291E-4,0
SITRO-AIS 10 (BURDAEV),2023-091AK,2026-06-10T14:45:44.792928,15.38358562,.00078548,97.5086,232.0013,99.6184,260.5948,0,U,57199,999,16375,.48117105E-3,.18151E-3,0
SITRO-AIS 9 (SHCHUKIN),2023-091AM,2026-06-10T13:47:04.803360,15.37876768,.0008114,97.5083,231.6946,99.9137,260.3023,0,U,57201,999,16373,.47297527E-3,.17563E-3,0
SITRO-AIS 12 (SMIRENNIY),2023-091AQ,2026-06-10T13:35:22.340256,15.38165096,.00076861,97.5097,232.1494,95.0369,265.1753,0,U,57204,999,16375,.45404919E-3,.17012E-3,0
SITRO-AIS 11 (SHEFFER),2023-091AU,2026-06-10T13:57:18.757440,15.38587074,.00075792,97.5095,232.4073,94.7549,265.4562,0,U,57208,999,16377,.47291152E-3,.17969E-3,0
SITRO-AIS 25,2024-039R,2026-06-10T14:37:18.406848,14.93479863,.01442855,95.3914,230.5721,351.9460,7.9448,0,U,59066,999,12374,.23353122E-3,.298E-4,0
SITRO-AIS 26,2024-039S,2026-06-10T14:37:59.584224,14.93276772,.01446408,95.3914,230.4715,352.5215,7.3852,0,U,59067,999,12373,.2278281E-3,.2893E-4,0
SITRO-AIS 27,2024-039T,2026-06-10T15:34:15.843072,14.93693188,.01436818,95.3914,230.7671,350.9483,8.9155,0,U,59068,999,12376,.2138636E-3,.2737E-4,0
SITRO-AIS 28,2024-039U,2026-06-10T13:25:31.562976,14.93728456,.01435819,95.3918,230.7525,351.1573,8.7125,0,U,59071,999,12375,.18489336E-3,.2363E-4,0
GRBBETA,2024-128C,2026-06-10T13:59:42.497664,15.06595991,.00415462,61.9898,239.4357,133.2177,227.2398,0,U,60237,999,10527,.22461953E-3,.3187E-4,0
OOV-CUBE (TUBSAT-30),2024-128F,2026-06-10T14:25:38.273088,15.02746418,.00454437,61.9950,248.5377,132.2861,228.2097,0,U,60240,999,10512,.16003491E-3,.1981E-4,0
ROBUSTA-3A (MEDITERRANEE),2024-128J,2026-06-10T12:28:47.186112,15.11597596,.00420788,61.9859,231.8200,126.8629,233.6336,0,U,60243,999,10541,.35004805E-3,.5875E-4,0
LASARSAT,2024-247Q,2026-06-09T19:18:52.108128,15.45910909,.0008391,44.9750,303.6854,290.3514,69.6474,0,U,62391,999,8217,.71316E-3,.35312E-3,0
CROCUBE,2024-247T,2026-06-10T15:36:43.605216,15.47795780,.00082402,44.9722,296.3748,298.7103,61.2959,0,U,62394,999,8233,.6699756E-3,.35404E-3,0
FORESAIL-1 PRIME,2025-276DS,2026-06-10T03:27:30.040416,15.18638120,.0003804,97.4201,234.5441,117.9504,242.2116,0,U,66778,999,2933,.22914E-3,.4678E-4,0
KNACKSAT-2,1998-067XZ,2026-06-10T14:57:00.949824,15.59374405,.00099749,51.6305,327.4826,186.2024,173.8847,0,U,67683,999,1925,.52711994E-3,.42223E-3,0
